NORAD_CAT_ID,OBJECT_NAME,OBJECT_TYPE,EPOCH,MEAN_MOTION,ECCENTRICITY,INCLINATION,RA_OF_ASC_NODE,ARG_OF_PERICENTER,MEAN_ANOMALY,BSTAR,MEAN_MOTION_DOT,MEAN_MOTION_DDOT,TLE_LINE0,TLE_LINE1,TLE_LINE2,SEMIMAJOR_AXIS,PERIOD,APOGEE,PERIGEE,DECAYED
53976.0,STARLINK-5134,PAYLOAD,2024-03-27 11:48:10,15.08858535,0.0001398,53.2161,161.4194,100.7863,259.3286,0.00044886,6.866e-05,0.0,0 STARLINK-5134,1 53976U 22125N   24087.49178947  .00006866  00000-0  44886-3 0  9991,2 53976  53.2161 161.4194 0001398 100.7863 259.3286 15.08858535 82151,6917.824,95.436,540.656,538.722,0.0
53976.0,STARLINK-5134,PAYLOAD,2024-03-27 21:20:29,15.08845861,0.0001462,53.2159,159.6338,100.7667,259.349,0.00028563,4.261e-05,0.0,0 STARLINK-5134,1 53976U 22125N   24087.88923391  .00004261  00000-0  28563-3 0  9996,2 53976  53.2159 159.6338 0001462 100.7667 259.3490 15.08845861 82145,6917.862,95.437,540.739,538.716,0.0
53976.0,STARLINK-5134,PAYLOAD,2024-03-28 05:17:26,15.08836541,0.0001421,53.2155,158.1481,99.0324,261.0829,0.00019617,2.835e-05,0.0,0 STARLINK-5134,1 53976U 22125N   24088.22044182  .00002835  00000-0  19617-3 0  9992,2 53976  53.2155 158.1481 0001421  99.0324 261.0829 15.08836541 82263,6917.891,95.438,540.739,538.773,0.0
53976.0,STARLINK-5134,PAYLOAD,2024-03-28 11:38:58,15.08840328,0.0001592,53.2171,156.9642,116.2534,243.8622,0.00032923,4.956e-05,0.0,0 STARLINK-5134,1 53976U 22125N   24088.48539785  .00004956  00000-0  32923-3 0  9999,2 53976  53.2171 156.9642 0001592 116.2534 243.8622 15.08840328 82234,6917.879,95.438,540.846,538.643,0.0
53976.0,STARLINK-5134,PAYLOAD,2024-03-28 21:11:16,15.08847455,0.0001226,53.2156,155.1763,104.1335,255.9793,0.00015296,2.148e-05,0.0,0 STARLINK-5134,1 53976U 22125N   24088.88283318  .00002148  00000-0  15296-3 0  9996,2 53976  53.2156 155.1763 0001226 104.1335 255.9793 15.08847455 82298,6917.858,95.437,540.571,538.874,0.0
53976.0,STARLINK-5134,PAYLOAD,2024-03-29 05:08:12,15.08847573,0.0001784,53.2162,153.6891,104.9281,255.1909,-0.00017443,-3.064e-05,0.0,0 STARLINK-5134,1 53976U 22125N   24089.21403288 -.00003064  00000-0 -17443-3 0  9990,2 53976  53.2162 153.6891 0001784 104.9281 255.1909 15.08847573 82413,6917.857,95.437,540.956,538.488,0.0
53976.0,STARLINK-5134,PAYLOAD,2024-03-29 11:29:44,15.08848143,0.0001585,53.2161,152.5027,114.6788,245.4369,-0.00011088,-2.053e-05,0.0,0 STARLINK-5134,1 53976U 22125N   24089.47899071 -.00002053  00000-0 -11088-3 0  9993,2 53976  53.2161 152.5027 0001585 114.6788 245.4369 15.08848143 82382,6917.855,95.437,540.817,538.624,0.0
53976.0,STARLINK-5134,PAYLOAD,2024-03-29 21:02:03,15.08849668,0.0001174,53.2149,150.7152,98.687,261.4255,-2.6316e-05,-7.07e-06,0.0,0 STARLINK-5134,1 53976U 22125N   24089.87642840 -.00000707  00000-0 -26316-4 0  9992,2 53976  53.2149 150.7152 0001174  98.6870 261.4255 15.08849668 82446,6917.851,95.437,540.528,538.904,0.0
53976.0,STARLINK-5134,PAYLOAD,2024-03-30 03:23:36,15.08839286,0.000149,53.2172,149.5289,102.737,257.3788,5.7238e-05,6.23e-06,0.0,0 STARLINK-5134,1 53976U 22125N   24090.14139568  .00000623  00000-0  57238-4 0  9994,2 53976  53.2172 149.5289 0001490 102.7370 257.3788 15.08839286 82554,6917.883,95.438,540.778,538.717,0.0
53976.0,STARLINK-5134,PAYLOAD,2024-03-30 11:20:32,15.08842877,0.0001424,53.2174,148.0416,107.5042,252.6105,8.9601e-05,1.138e-05,0.0,0 STARLINK-5134,1 53976U 22125N   24090.47259628  .00001138  00000-0  89601-4 0  9991,2 53976  53.2174 148.0416 0001424 107.5042 252.6105 15.08842877 82537,6917.872,95.437,540.722,538.751,0.0
53976.0,STARLINK-5134,PAYLOAD,2024-03-30 20:52:50,15.0884563,0.0001377,53.2171,146.2571,100.6961,259.4186,4.206e-05,3.82e-06,0.0,0 STARLINK-5134,1 53976U 22125N   24090.87003469  .00000382  00000-0  42060-4 0  9993,2 53976  53.2171 146.2571 0001377 100.6961 259.4186 15.08845630 82597,6917.863,95.437,540.681,538.776,0.0
53976.0,STARLINK-5134,PAYLOAD,2024-03-31 11:11:19,15.08844996,0.0001425,53.2166,143.5805,97.5704,262.545,9.1621e-05,1.171e-05,0.0,0 STARLINK-5134,1 53976U 22125N   24091.46619421  .00001171  00000-0  91621-4 0  9994,2 53976  53.2166 143.5805 0001425  97.5704 262.5450 15.08844996 82755,6917.865,95.437,540.716,538.744,0.0
53976.0,STARLINK-5134,PAYLOAD,2024-03-31 20:43:38,15.08842071,0.0001322,53.2156,141.7947,91.654,268.4603,4.5417e-05,4.35e-06,0.0,0 STARLINK-5134,1 53976U 22125N   24091.86363585  .00000435  00000-0  45417-4 0  9999,2 53976  53.2156 141.7947 0001322  91.6540 268.4603 15.08842071 82746,6917.874,95.437,540.654,538.825,0.0
53976.0,STARLINK-5134,PAYLOAD,2024-04-01 12:37:29,15.0884064,0.0001374,53.2161,138.8207,87.9798,272.1351,5.5654e-05,5.98e-06,0.0,0 STARLINK-5134,1 53976U 22125N   24092.52603664  .00000598  00000-0  55654-4 0  9992,2 53976  53.2161 138.8207 0001374  87.9798 272.1351 15.08840640 82919,6917.878,95.438,540.694,538.793,0.0
53976.0,STARLINK-5134,PAYLOAD,2024-04-02 09:17:30,15.08831998,0.0001459,53.2161,134.9543,94.287,265.8289,0.0002664,3.953e-05,0.0,0 STARLINK-5134,1 53976U 22125N   24093.38715792  .00003953  00000-0  26640-3 0  9993,2 53976  53.2161 134.9543 0001459  94.2870 265.8289 15.08831998 82976,6917.905,95.438,540.779,538.761,0.0
53976.0,STARLINK-5134,PAYLOAD,2024-04-03 12:19:03,15.08840015,0.0001469,53.2165,129.8987,90.8805,269.2356,6.6029e-05,7.63e-06,0.0,0 STARLINK-5134,1 53976U 22125N   24094.51323470  .00000763  00000-0  66029-4 0  9999,2 53976  53.2165 129.8987 0001469  90.8805 269.2356 15.08840015 83217,6917.88,95.438,540.762,538.729,0.0
53976.0,STARLINK-5134,PAYLOAD,2024-04-04 08:59:04,15.08840017,0.0001661,53.2156,126.0324,90.4996,269.6186,-6.8689e-05,-1.381e-05,0.0,0 STARLINK-5134,1 53976U 22125N   24095.37436080 -.00001381  00000-0 -68689-4 0  9999,2 53976  53.2156 126.0324 0001661  90.4996 269.6186 15.08840017 83343,6917.88,95.438,540.894,538.596,0.0
53976.0,STARLINK-5134,PAYLOAD,2024-04-04 18:31:23,15.08836363,0.0001401,53.2157,124.2482,88.5869,271.5283,5.0955e-06,-2.07e-06,0.0,0 STARLINK-5134,1 53976U 22125N   24095.77180124 -.00000207  00000-0  50955-5 0  9991,2 53976  53.2157 124.2482 0001401  88.5869 271.5283 15.08836363 83336,6917.892,95.438,540.726,538.787,0.0
53976.0,STARLINK-5134,PAYLOAD,2024-04-05 08:49:51,15.08840071,0.000137,53.2161,121.5732,90.3129,269.802,5.7994e-05,6.35e-06,0.0,0 STARLINK-5134,1 53976U 22125N   24096.36795841  .00000635  00000-0  57994-4 0  9998,2 53976  53.2161 121.5732 0001370  90.3129 269.8020 15.08840071 83424,6917.88,95.438,540.693,538.797,0.0
53976.0,STARLINK-5134,PAYLOAD,2024-04-05 18:22:11,15.08832359,0.0001252,53.2152,119.7909,91.3363,268.7773,-5.8073e-05,-1.212e-05,0.0,0 STARLINK-5134,1 53976U 22125N   24096.76540747 -.00001212  00000-0 -58073-4 0  9998,2 53976  53.2152 119.7909 0001252  91.3363 268.7773 15.08832359 83556,6917.904,95.438,540.635,538.903,0.0
53976.0,STARLINK-5134,PAYLOAD,2024-04-06 00:43:44,15.08817959,0.0001203,53.2151,118.6013,90.0305,270.0825,0.00016089,2.272e-05,0.0,0 STARLINK-5134,1 53976U 22125N   24097.03037369  .00002272  00000-0  16089-3 0  9995,2 53976  53.2151 118.6013 0001203  90.0305 270.0825 15.08817959 83594,6917.948,95.439,540.645,538.981,0.0
53976.0,STARLINK-5134,PAYLOAD,2024-04-06 08:40:40,15.08828256,0.0001334,53.2164,117.1141,93.4901,266.6243,-2.0611e-06,-3.21e-06,0.0,0 STARLINK-5134,1 53976U 22125N   24097.36157421 -.00000321  00000-0 -20611-5 0  9996,2 53976  53.2164 117.1141 0001334  93.4901 266.6243 15.08828256 83573,6917.916,95.438,540.704,538.858,0.0
53976.0,STARLINK-5134,PAYLOAD,2024-04-06 18:12:58,15.08834938,0.0001358,53.2169,115.3302,94.4748,265.6399,4.8215e-05,4.79e-06,0.0,0 STARLINK-5134,1 53976U 22125N   24097.75901048  .00000479  00000-0  48215-4 0  9992,2 53976  53.2169 115.3302 0001358  94.4748 265.6399 15.08834938 83703,6917.896,95.438,540.7,538.821,0.0
53976.0,STARLINK-5134,PAYLOAD,2024-04-07 08:31:26,15.08844529,0.0001451,53.2167,112.6527,91.6648,268.4511,7.5346e-05,9.12e-06,0.0,0 STARLINK-5134,1 53976U 22125N   24098.35516496  .00000912  00000-0  75346-4 0  9995,2 53976  53.2167 112.6527 0001451  91.6648 268.4511 15.08844529 83795,6917.867,95.437,540.735,538.728,0.0
53976.0,STARLINK-5134,PAYLOAD,2024-04-07 18:03:45,15.08838773,0.0001401,53.2165,110.8699,87.0701,273.0451,0.00011459,1.536e-05,0.0,0 STARLINK-5134,1 53976U 22125N   24098.75260783  .00001536  00000-0  11459-3 0  9991,2 53976  53.2165 110.8699 0001401  87.0701 273.0451 15.08838773 83785,6917.884,95.438,540.718,538.78,0.0
53976.0,STARLINK-5134,PAYLOAD,2024-04-08 09:57:36,15.08843204,0.0001462,53.2165,107.8933,89.3448,270.7711,0.00012415,1.689e-05,0.0,0 STARLINK-5134,1 53976U 22125N   24099.41500592  .00001689  00000-0  12415-3 0  9992,2 53976  53.2165 107.8933 0001462  89.3448 270.7711 15.08843204 83881,6917.871,95.437,540.747,538.724,0.0
53976.0,STARLINK-5134,PAYLOAD,2024-04-09 00:16:04,15.08847368,0.0001537,53.2168,105.218,87.1148,273.0021,5.0887e-05,5.22e-06,0.0,0 STARLINK-5134,1 53976U 22125N   24100.01116450  .00000522  00000-0  50887-4 0  9998,2 53976  53.2168 105.2180 0001537  87.1148 273.0021 15.08847368 83971,6917.858,95.437,540.786,538.66,0.0
53976.0,STARLINK-5134,PAYLOAD,2024-04-09 06:37:37,15.0884793,0.0001509,53.2172,104.0286,91.3033,268.8132,5.4622e-05,5.82e-06,0.0,0 STARLINK-5134,1 53976U 22125N   24100.27612278  .00000582  00000-0  54622-4 0  9992,2 53976  53.2172 104.0286 0001509  91.3033 268.8132 15.08847930 84015,6917.856,95.437,540.765,538.677,0.0
53976.0,STARLINK-5134,PAYLOAD,2024-04-09 17:45:18,15.08847653,0.0001443,53.2163,101.9475,86.0569,274.0588,1.1954e-05,-9.8e-07,0.0,0 STARLINK-5134,1 53976U 22125N   24100.73980183 -.00000098  00000-0  11954-4 0  9990,2 53976  53.2163 101.9475 0001443  86.0569 274.0588 15.08847653 84086,6917.857,95.437,540.72,538.724,0.0
53976.0,STARLINK-5134,PAYLOAD,2024-04-10 04:53:01,15.08839674,0.0001483,53.2166,99.8664,88.2726,271.8436,-5.0744e-06,-3.69e-06,0.0,0 STARLINK-5134,1 53976U 22125N   24101.20348683 -.00000369  00000-0 -50744-5 0  9999,2 53976  53.2166  99.8664 0001483  88.2726 271.8436 15.08839674 84224,6917.881,95.438,540.772,538.72,0.0
